{
  "type": "FeatureCollection",
  "features": [
    {
      "type": "Feature",
      "properties": {
        "norad_id": 35645,
        "name": "COSMOS 2251 DEB",
        "group": "cosmos-2251-debris",
        "lat": -26.619754843425607,
        "lon": 89.75474914831328,
        "alt_km": 733.5892926702527,
        "timestamp": "2025-12-07T05:38:10.299970+00:00",
        "meta_object_name": "COSMOS 2251 DEB",
        "meta_object_id": "1993-036ANL",
        "meta_epoch": "2025-12-06T14:48:53.385120",
        "meta_mean_motion": 14.45430489,
        "meta_eccentricity": 0.00694651,
        "meta_inclination": 73.9649,
        "meta_ra_of_asc_node": 99.1981,
        "meta_arg_of_pericenter": 257.6557,
        "meta_mean_anomaly": 101.6818,
        "meta_ephemeris_type": 0,
        "meta_classification_type": "U",
        "meta_norad_cat_id": 35645,
        "meta_element_set_no": 999,
        "meta_rev_at_epoch": 86683,
        "meta_bstar": 0.0035668156,
        "meta_mean_motion_dot": 0.00012932,
        "meta_mean_motion_ddot": 0,
        "tle_line1": "1 35645U 93036ANL 25340.61728455  .00012932  00000+0  35668-2 0  9992",
        "tle_line2": "2 35645  73.9649  99.1981 0069465 257.6557 101.6818 14.45430489866835"
      },
      "geometry": {
        "type": "Point",
        "coordinates": [
          89.75474914831328,
          -26.619754843425607
        ]
      }
    },
    {
      "type": "Feature",
      "properties": {
        "norad_id": 35646,
        "name": "COSMOS 2251 DEB",
        "group": "cosmos-2251-debris",
        "lat": 12.352614521576983,
        "lon": -118.86823664063692,
        "alt_km": 768.1542704281628,
        "timestamp": "2025-12-07T05:38:10.299980+00:00",
        "meta_object_name": "COSMOS 2251 DEB",
        "meta_object_id": "1993-036ANM",
        "meta_epoch": "2025-12-04T12:27:05.030208",
        "meta_mean_motion": 13.40795719,
        "meta_eccentricity": 0.0457655,
        "meta_inclination": 73.8717,
        "meta_ra_of_asc_node": 69.0727,
        "meta_arg_of_pericenter": 180.5936,
        "meta_mean_anomaly": 201.9959,
        "meta_ephemeris_type": 0,
        "meta_classification_type": "U",
        "meta_norad_cat_id": 35646,
        "meta_element_set_no": 999,
        "meta_rev_at_epoch": 81748,
        "meta_bstar": 0.0021754,
        "meta_mean_motion_dot": 2.2e-05,
        "meta_mean_motion_ddot": 0,
        "tle_line1": "1 35646U 93036ANM 25338.51880822  .00002200  00000+0  21754-2 0  9994",
        "tle_line2": "2 35646  73.8717  69.0727 0457655 180.5936 201.9959 13.40795719817483"
      },
      "geometry": {
        "type": "Point",
        "coordinates": [
          -118.86823664063692,
          12.352614521576983
        ]
      }
    },
    {
      "type": "Feature",
      "properties": {
        "norad_id": 35647,
        "name": "COSMOS 2251 DEB",
        "group": "cosmos-2251-debris",
        "lat": 71.6382963314237,
        "lon": 4.480250611907015,
        "alt_km": 713.1880827290361,
        "timestamp": "2025-12-07T05:38:10.299990+00:00",
        "meta_object_name": "COSMOS 2251 DEB",
        "meta_object_id": "1993-036ANN",
        "meta_epoch": "2025-12-06T04:19:05.390400",
        "meta_mean_motion": 14.4357388,
        "meta_eccentricity": 0.0045144,
        "meta_inclination": 74.0229,
        "meta_ra_of_asc_node": 306.7667,
        "meta_arg_of_pericenter": 47.5691,
        "meta_mean_anomaly": 312.927,
        "meta_ephemeris_type": 0,
        "meta_classification_type": "U",
        "meta_norad_cat_id": 35647,
        "meta_element_set_no": 999,
        "meta_rev_at_epoch": 67569,
        "meta_bstar": 0.0014529978,
        "meta_mean_motion_dot": 4.961e-05,
        "meta_mean_motion_ddot": 0,
        "tle_line1": "1 35647U 93036ANN 25340.17992350  .00004961  00000+0  14530-2 0  9990",
        "tle_line2": "2 35647  74.0229 306.7667 0045144  47.5691 312.9270 14.43573880675696"
      },
      "geometry": {
        "type": "Point",
        "coordinates": [
          4.480250611907015,
          71.6382963314237
        ]
      }
    },
    {
      "type": "Feature",
      "properties": {
        "norad_id": 35650,
        "name": "COSMOS 2251 DEB",
        "group": "cosmos-2251-debris",
        "lat": -2.5179547179630877,
        "lon": -149.50318330274467,
        "alt_km": 623.6583499649123,
        "timestamp": "2025-12-07T05:38:10.300000+00:00",
        "meta_object_name": "COSMOS 2251 DEB",
        "meta_object_id": "1993-036ANR",
        "meta_epoch": "2025-12-06T03:03:03.071232",
        "meta_mean_motion": 14.83360179,
        "meta_eccentricity": 0.00144091,
        "meta_inclination": 74.0465,
        "meta_ra_of_asc_node": 31.9672,
        "meta_arg_of_pericenter": 83.0445,
        "meta_mean_anomaly": 306.3441,
        "meta_ephemeris_type": 0,
        "meta_classification_type": "U",
        "meta_norad_cat_id": 35650,
        "meta_element_set_no": 999,
        "meta_rev_at_epoch": 87536,
        "meta_bstar": 0.0025128272,
        "meta_mean_motion_dot": 0.00020669,
        "meta_mean_motion_ddot": 0,
        "tle_line1": "1 35650U 93036ANR 25340.12711888  .00020669  00000+0  25128-2 0  9992",
        "tle_line2": "2 35650  74.0465  31.9672 0014409  83.0445 306.3441 14.83360179875369"
      },
      "geometry": {
        "type": "Point",
        "coordinates": [
          -149.50318330274467,
          -2.5179547179630877
        ]
      }
    },
    {
      "type": "Feature",
      "properties": {
        "norad_id": 35660,
        "name": "COSMOS 2251 DEB",
        "group": "cosmos-2251-debris",
        "lat": 60.34973231662984,
        "lon": 173.7478976224004,
        "alt_km": 728.506137336045,
        "timestamp": "2025-12-07T05:38:10.300010+00:00",
        "meta_object_name": "COSMOS 2251 DEB",
        "meta_object_id": "1993-036APB",
        "meta_epoch": "2025-12-06T05:18:17.773056",
        "meta_mean_motion": 14.49891822,
        "meta_eccentricity": 0.00183215,
        "meta_inclination": 74.0388,
        "meta_ra_of_asc_node": 145.4664,
        "meta_arg_of_pericenter": 294.6596,
        "meta_mean_anomaly": 240.4039,
        "meta_ephemeris_type": 0,
        "meta_classification_type": "U",
        "meta_norad_cat_id": 35660,
        "meta_element_set_no": 999,
        "meta_rev_at_epoch": 65776,
        "meta_bstar": 0.00076820302,
        "meta_mean_motion_dot": 2.948e-05,
        "meta_mean_motion_ddot": 0,
        "tle_line1": "1 35660U 93036APB 25340.22103904  .00002948  00000+0  76820-3 0  9994",
        "tle_line2": "2 35660  74.0388 145.4664 0018321 294.6596 240.4039 14.49891822657769"
      },
      "geometry": {
        "type": "Point",
        "coordinates": [
          173.7478976224004,
          60.34973231662984
        ]
      }
    },
    {
      "type": "Feature",
      "properties": {
        "norad_id": 35661,
        "name": "COSMOS 2251 DEB",
        "group": "cosmos-2251-debris",
        "lat": 53.457141121149895,
        "lon": 113.45935903540442,
        "alt_km": 650.7072980209041,
        "timestamp": "2025-12-07T05:38:10.300021+00:00",
        "meta_object_name": "COSMOS 2251 DEB",
        "meta_object_id": "1993-036APC",
        "meta_epoch": "2025-12-05T14:36:34.984800",
        "meta_mean_motion": 14.86364336,
        "meta_eccentricity": 0.0088867,
        "meta_inclination": 74.0135,
        "meta_ra_of_asc_node": 93.941,
        "meta_arg_of_pericenter": 199.9013,
        "meta_mean_anomaly": 159.8694,
        "meta_ephemeris_type": 0,
        "meta_classification_type": "U",
        "meta_norad_cat_id": 35661,
        "meta_element_set_no": 999,
        "meta_rev_at_epoch": 87762,
        "meta_bstar": 0.0019197876,
        "meta_mean_motion_dot": 0.00018202,
        "meta_mean_motion_ddot": 0,
        "tle_line1": "1 35661U 93036APC 25339.60873825  .00018202  00000+0  19198-2 0  9995",
        "tle_line2": "2 35661  74.0135  93.9410 0088867 199.9013 159.8694 14.86364336877624"
      },
      "geometry": {
        "type": "Point",
        "coordinates": [
          113.45935903540442,
          53.457141121149895
        ]
      }
    },
    {
      "type": "Feature",
      "properties": {
        "norad_id": 35663,
        "name": "COSMOS 2251 DEB",
        "group": "cosmos-2251-debris",
        "lat": -3.7674976181414577,
        "lon": 134.1975113530535,
        "alt_km": 683.3847702680259,
        "timestamp": "2025-12-07T05:38:10.300031+00:00",
        "meta_object_name": "COSMOS 2251 DEB",
        "meta_object_id": "1993-036APE",
        "meta_epoch": "2025-11-30T11:26:45.384288",
        "meta_mean_motion": 14.65332391,
        "meta_eccentricity": 0.00074535,
        "meta_inclination": 74.0171,
        "meta_ra_of_asc_node": 148.2949,
        "meta_arg_of_pericenter": 219.2944,
        "meta_mean_anomaly": 140.7685,
        "meta_ephemeris_type": 0,
        "meta_classification_type": "U",
        "meta_norad_cat_id": 35663,
        "meta_element_set_no": 999,
        "meta_rev_at_epoch": 73202,
        "meta_bstar": 0.0015821861,
        "meta_mean_motion_dot": 8.525e-05,
        "meta_mean_motion_ddot": 0,
        "tle_line1": "1 35663U 93036APE 25334.47691417  .00008525  00000+0  15822-2 0  9999",
        "tle_line2": "2 35663  74.0171 148.2949 0007453 219.2944 140.7685 14.65332391732024"
      },
      "geometry": {
        "type": "Point",
        "coordinates": [
          134.1975113530535,
          -3.7674976181414577
        ]
      }
    }
  ]
}